SatCatId,ObjectName,LaunchYear,OrbitalPeriod,LaunchMass,StatusCode,Inclination,Status,UcsData,OrbitClassEstimated,LaunchSiteCountry,Owner,UseType,Purpose,LaunchVehicleClass,TLE1,TLE2,MeanMotion,Eccentricity,OrbitClass
54053,STARLINK-5176,2022,95.44,260.0,+,53.22,Active,1,LEO,USA,USA,Commercial,Communications,Falcon,1 54053U 22136C   24173.60573822  .00000722  00000+0  63449-4 0  9991,2 54053  53.2184 274.9317 0001274  82.3405 277.7732 15.08841328 92322,15.08841328,0.0001274,LEO
54054,STARLINK-5163,2022,95.44,260.0,+,53.22,Active,1,LEO,USA,USA,Commercial,Communications,Falcon,1 54054U 22136D   24173.53213292  .00001876  00000+0  13595-3 0  9993,2 54054  53.2187 275.1824 0001539  88.2800 271.8369 15.08837718 92318,15.08837718,0.0001539,LEO
54055,STARLINK-5158,2022,95.44,260.0,+,53.22,Active,1,LEO,USA,USA,Commercial,Communications,Falcon,1 54055U 22136E   24173.53581867  .00001825  00000+0  13274-3 0  9998,2 54055  53.2176 275.2048 0001646  80.2523 279.8655 15.08836503 92316,15.08836503,0.0001646,LEO
54056,STARLINK-5226,2022,95.44,260.0,+,53.22,Active,1,LEO,USA,USA,Commercial,Communications,Falcon,1 54056U 22136F   24173.54677656  .00001762  00000+0  12875-3 0  9998,2 54056  53.2165 274.5724 0000860  82.6003 277.5086 15.08849016 92321,15.08849016,8.6e-05,LEO
54058,STARLINK-5167,2022,95.44,260.0,+,53.22,Active,1,LEO,USA,USA,Commercial,Communications,Falcon,1 54058U 22136H   24173.52108032  .00001057  00000+0  84494-4 0  9999,2 54058  53.2196 275.1170 0001255 109.5730 250.5397 15.08832132 92310,15.08832132,0.0001255,LEO
54059,STARLINK-5173,2022,95.44,260.0,+,53.22,Active,1,LEO,USA,USA,Commercial,Communications,Falcon,1 54059U 22136J   24173.52476761  .00001195  00000+0  93180-4 0  9992,2 54059  53.2202 275.1390 0001624 109.4977 250.6191 15.08830828 92318,15.08830828,0.0001624,LEO
54060,STARLINK-5169,2022,95.44,260.0,+,53.22,Active,1,LEO,USA,USA,Commercial,Communications,Falcon,1 54060U 22136K   24173.48331279  .00000202  00000+0  30801-4 0  9992,2 54060  53.2171 244.9263 0001112  88.5329 271.5791 15.08834473 92732,15.08834473,0.0001112,LEO
54061,STARLINK-5209,2022,95.44,260.0,+,53.22,Active,1,LEO,USA,USA,Commercial,Communications,Falcon,1 54061U 22136L   24173.41568470 -.00000174  00000+0  71428-5 0  9991,2 54061  53.2167 240.1750 0001333  91.4787 268.6358 15.08836349 92799,15.08836349,0.0001333,LEO
54062,STARLINK-5170,2022,95.44,260.0,+,53.22,Active,1,LEO,USA,USA,Commercial,Communications,Falcon,1 54062U 22136M   24173.51739936  .00000593  00000+0  55363-4 0  9993,2 54062  53.2194 275.0916 0001494 112.1971 247.9180 15.08827824 92314,15.08827824,0.0001494,LEO
54063,STARLINK-5225,2022,95.44,260.0,+,53.22,Active,1,LEO,USA,USA,Commercial,Communications,Falcon,1 54063U 22136N   24173.57994852  .00000110  00000+0  24989-4 0  9995,2 54063  53.2176 274.7677 0001228  95.4463 264.6670 15.08834578 92324,15.08834578,0.0001228,LEO
54064,STARLINK-5172,2022,95.44,260.0,+,53.22,Active,1,LEO,USA,USA,Commercial,Communications,Falcon,1 54064U 22136P   24173.53076239  .00001202  00000+0  93644-4 0  9999,2 54064  53.2182 230.2424 0001426  97.4521 262.6633 15.08830976 92949,15.08830976,0.0001426,LEO
54065,STARLINK-5187,2022,95.44,260.0,+,53.22,Active,1,LEO,USA,USA,Commercial,Communications,Falcon,1 54065U 22136Q   24173.57257663  .00002431  00000+0  17078-3 0  9997,2 54065  53.2172 274.7221 0001283  88.7352 271.3787 15.08841472 92325,15.08841472,0.0001283,LEO
54066,STARLINK-5151,2022,95.44,260.0,+,53.22,Active,1,LEO,USA,USA,Commercial,Communications,Falcon,1 54066U 22136R   24173.57626151  .00000496  00000+0  49245-4 0  9991,2 54066  53.2189 274.7497 0001496 108.9727 251.1427 15.08835742 92326,15.08835742,0.0001496,LEO
54067,STARLINK-5174,2022,95.44,260.0,+,53.22,Active,1,LEO,USA,USA,Commercial,Communications,Falcon,1 54067U 22136S   24173.49896614  .00002484  00000+0  17411-3 0  9994,2 54067  53.2176 274.9703 0001603 127.4992 232.6146 15.08834350 92310,15.0883435,0.0001603,LEO
54068,STARLINK-5222,2022,95.44,260.0,+,53.22,Active,1,LEO,USA,USA,Commercial,Communications,Falcon,1 54068U 22136T   24173.56888984  .00000174  00000+0  29020-4 0  9998,2 54068  53.2185 274.6996 0001240  89.0806 271.0329 15.08838233 92321,15.08838233,0.000124,LEO
54069,STARLINK-5223,2022,91.73,260.0,P,53.22,Active,1,LEO,USA,USA,Commercial,Communications,Falcon,1 54069U 22136U   24173.52618905  .00041644  00000+0  34680-3 0  9993,2 54069  53.2159 268.0683 0001142  79.9451 280.1696 15.69715956 92419,15.69715956,0.0001142,LEO
54070,STARLINK-5181,2022,95.44,260.0,+,53.22,Active,1,LEO,USA,USA,Commercial,Communications,Falcon,1 54070U 22136V   24173.55783719  .00001267  00000+0  97669-4 0  9998,2 54070  53.2184 274.6338 0001435  97.8480 262.2675 15.08839237 92325,15.08839237,0.0001435,LEO
54071,STARLINK-5168,2022,95.44,260.0,+,53.22,Active,1,LEO,USA,USA,Commercial,Communications,Falcon,1 54071U 22136W   24173.68662632  .00002524  00000+0  17660-3 0  9992,2 54071  53.2174 274.0168 0001219  95.1455 264.9676 15.08846811 92824,15.08846811,0.0001219,LEO
54072,STARLINK-5144,2022,95.44,260.0,+,53.22,Active,1,LEO,USA,USA,Commercial,Communications,Falcon,1 54072U 22136X   24173.56151912  .00000326  00000+0  38585-4 0  9992,2 54072  53.2180 274.6595 0001292  92.6559 267.4581 15.08838646 92808,15.08838646,0.0001292,LEO
54073,STARLINK-5146,2022,95.44,260.0,+,53.22,Active,1,LEO,USA,USA,Commercial,Communications,Falcon,1 54073U 22136Y   24173.55277121  .00000605  00000+0  56110-4 0  9997,2 54073  53.2179 269.6224 0001332  94.3524 265.7620 15.08838942 92394,15.08838942,0.0001332,LEO
54074,STARLINK-5192,2022,95.44,260.0,+,53.22,Active,1,LEO,USA,USA,Commercial,Communications,Falcon,1 54074U 22136Z   24173.55047039  .00001696  00000+0  12464-3 0  9995,2 54074  53.2192 274.5867 0001783 110.4117 249.7066 15.08837270 92328,15.0883727,0.0001783,LEO
54075,STARLINK-5212,2022,95.44,260.0,+,53.22,Active,1,LEO,USA,USA,Commercial,Communications,Falcon,1 54075U 22136AA  24173.54908535  .00000105  00000+0  24673-4 0  9992,2 54075  53.2175 269.5930 0001289  94.7968 265.3171 15.08841663 92393,15.08841663,0.0001289,LEO
54076,STARLINK-5201,2022,95.54,260.0,+,53.22,Active,1,LEO,USA,USA,Commercial,Communications,Falcon,1 54076U 22136AB  24173.51606561  .00000442  00000+0  47683-4 0  9994,2 54076  53.2198 275.0745 0001587  99.9698 260.1472 15.07199215 92310,15.07199215,0.0001587,LEO
54077,STARLINK-5171,2022,95.44,260.0,+,53.22,Active,1,LEO,USA,USA,Commercial,Communications,Falcon,1 54077U 22136AC  24173.55231560  .00001169  00000+0  91546-4 0  9996,2 54077  53.2161 254.6397 0001255  77.1352 282.9780 15.08840207 92605,15.08840207,0.0001255,LEO
54078,STARLINK-5138,2022,95.44,260.0,+,53.22,Active,1,LEO,USA,USA,Commercial,Communications,Falcon,1 54078U 22136AD  24173.51186512 -.00000065  00000+0  14023-4 0  9999,2 54078  53.2169 255.0965 0001354 100.4329 259.6815 15.08839871 92597,15.08839871,0.0001354,LEO
54079,STARLINK-5175,2022,95.44,260.0,+,53.22,Active,1,LEO,USA,USA,Commercial,Communications,Falcon,1 54079U 22136AE  24173.47417949  .00000421  00000+0  44574-4 0  9995,2 54079  53.2174 265.5371 0001440 102.5478 257.5676 15.08836924 92447,15.08836924,0.000144,LEO
54080,STARLINK-5160,2022,95.44,260.0,+,53.22,Active,1,LEO,USA,USA,Commercial,Communications,Falcon,1 54080U 22136AF  24173.53443107  .00001575  00000+0  11704-3 0  9998,2 54080  53.2166 270.2077 0001314  86.8964 273.2179 15.08843007 92386,15.08843007,0.0001314,LEO
54081,STARLINK-5165,2022,95.44,260.0,+,53.22,Active,1,LEO,USA,USA,Commercial,Communications,Falcon,1 54081U 22136AG  24173.58086534  .00001929  00000+0  13927-3 0  9993,2 54081  53.2173 264.7873 0001334  81.7398 278.3746 15.08842892 92460,15.08842892,0.0001334,LEO
54082,STARLINK-5210,2022,95.44,260.0,+,53.22,Active,1,LEO,USA,USA,Commercial,Communications,Falcon,1 54082U 22136AH  24173.53673259  .00000302  00000+0  37076-4 0  9991,2 54082  53.2173 265.2150 0001251 102.0516 258.0616 15.08840332 92932,15.08840332,0.0001251,LEO
54083,STARLINK-5178,2022,95.44,260.0,+,53.22,Active,1,LEO,USA,USA,Commercial,Communications,Falcon,1 54083U 22136AJ  24173.52568200 -.00000821  00000+0 -33463-4 0  9994,2 54083  53.2193 265.1488 0001730 125.6773 234.4380 15.08837991 92456,15.08837991,0.000173,LEO
54084,STARLINK-5183,2022,95.44,260.0,+,53.22,Active,1,LEO,USA,USA,Commercial,Communications,Falcon,1 54084U 22136AK  24173.53304961  .00001303  00000+0  99960-4 0  9996,2 54084  53.2169 265.1954 0001495  94.8613 265.2550 15.08842239 92458,15.08842239,0.0001495,LEO
54085,STARLINK-5166,2022,95.44,260.0,+,53.22,Active,1,LEO,USA,USA,Commercial,Communications,Falcon,1 54085U 22136AL  24173.52295202  .00001208  00000+0  93992-4 0  9996,2 54085  53.2175 265.1326 0001128  89.8641 270.2480 15.08841300 92453,15.088413,0.0001128,LEO
54086,STARLINK-5211,2022,95.44,260.0,+,53.22,Active,1,LEO,USA,USA,Commercial,Communications,Falcon,1 54086U 22136AM  24173.59146797  .00001421  00000+0  10734-3 0  9997,2 54086  53.2184 249.8922 0001398  92.9449 267.1703 15.08839830 92677,15.0883983,0.0001398,LEO
54087,STARLINK-5184,2022,95.44,260.0,+,53.22,Active,1,LEO,USA,USA,Commercial,Communications,Falcon,1 54087U 22136AN  24173.48514923  .00000505  00000+0  49837-4 0  9995,2 54087  53.2170 264.9066 0001133  87.2592 272.8530 15.08838804 92450,15.08838804,0.0001133,LEO
54088,STARLINK-5153,2022,95.44,260.0,+,53.22,Active,1,LEO,USA,USA,Commercial,Communications,Falcon,1 54088U 22136AP  24173.52936895  .00001053  00000+0  84264-4 0  9999,2 54088  53.2189 265.1710 0001544  97.6557 262.4610 15.08837852 92458,15.08837852,0.0001544,LEO
54089,STARLINK-5143,2022,95.44,260.0,+,53.22,Active,1,LEO,USA,USA,Commercial,Communications,Falcon,1 54089U 22136AQ  24173.57349866  .00000972  00000+0  79180-4 0  9991,2 54089  53.2172 264.7356 0001357  80.2796 279.8349 15.08839181 92466,15.08839181,0.0001357,LEO
